NORAD_CAT_ID,OBJECT_NAME,OBJECT_TYPE,EPOCH,MEAN_MOTION,ECCENTRICITY,INCLINATION,RA_OF_ASC_NODE,ARG_OF_PERICENTER,MEAN_ANOMALY,BSTAR,MEAN_MOTION_DOT,MEAN_MOTION_DDOT,TLE_LINE0,TLE_LINE1,TLE_LINE2,SEMIMAJOR_AXIS,PERIOD,APOGEE,PERIGEE,DECAYED
53779.0,STARLINK-4706,PAYLOAD,2023-02-03 00:46:13,15.08854863,0.0001302,53.2168,309.9587,82.2554,277.8586,0.00080842,0.00012607,0.0,0 STARLINK-4706,1 53779U 22111G   23034.03210625  .00012607  00000-0  80842-3 0  9990,2 53779  53.2168 309.9587 0001302  82.2554 277.8586 15.08854863 22196,6917.835,95.437,540.601,538.799,0.0
53779.0,STARLINK-4706,PAYLOAD,2023-02-03 03:57:00,15.08859817,0.0001371,53.2168,309.3636,83.7351,276.3798,0.0009465,0.00014816,0.0,0 STARLINK-4706,1 53779U 22111G   23034.16458503  .00014816  00000-0  94650-3 0  9999,2 53779  53.2168 309.3636 0001371  83.7351 276.3798 15.08859817 23028,6917.82,95.436,540.633,538.736,0.0
53779.0,STARLINK-4706,PAYLOAD,2023-02-04 03:47:46,15.08863918,0.0001631,53.2181,304.9028,91.8481,268.2698,0.00035764,5.412e-05,0.0,0 STARLINK-4706,1 53779U 22111G   23035.15817933  .00005412  00000-0  35764-3 0  9998,2 53779  53.2181 304.9028 0001631  91.8481 268.2698 15.08863918 22364,6917.807,95.436,540.801,538.544,0.0
53779.0,STARLINK-4706,PAYLOAD,2023-02-04 21:17:01,15.08849879,0.0001615,53.2166,301.6328,90.8268,269.291,-0.00013611,-2.454e-05,0.0,0 STARLINK-4706,1 53779U 22111G   23035.88681738 -.00002454  00000-0 -13611-3 0  9992,2 53779  53.2166 301.6328 0001615  90.8268 269.2910 15.08849879 22478,6917.85,95.437,540.832,538.598,0.0
53779.0,STARLINK-4706,PAYLOAD,2023-02-05 03:38:33,15.08852988,0.0001539,53.2162,300.4436,81.2099,278.9067,-5.9349e-05,-1.233e-05,0.0,0 STARLINK-4706,1 53779U 22111G   23036.15177394 -.00001233  00000-0 -59349-4 0  9994,2 53779  53.2162 300.4436 0001539  81.2099 278.9067 15.08852988 23322,6917.841,95.437,540.77,538.641,0.0
53779.0,STARLINK-4706,PAYLOAD,2023-02-05 17:57:02,15.08831354,0.000175,53.2141,297.7664,94.5826,265.5366,2.0274e-07,-2.85e-06,0.0,0 STARLINK-4706,1 53779U 22111G   23036.74794596 -.00000285  00000-0  20274-6 0  9990,2 53779  53.2141 297.7664 0001750  94.5826 265.5366 15.08831354 22608,6917.907,95.438,540.982,538.561,0.0
53779.0,STARLINK-4706,PAYLOAD,2023-02-05 21:07:48,15.08832996,0.0001802,53.2149,297.1712,97.4917,262.628,1.5217e-05,-4.6e-07,0.0,0 STARLINK-4706,1 53779U 22111G   23036.88042541 -.00000046  00000-0  15217-4 0  9995,2 53779  53.2149 297.1712 0001802  97.4917 262.6280 15.08832996 23433,6917.902,95.438,541.013,538.52,0.0
53779.0,STARLINK-4706,PAYLOAD,2023-02-06 13:01:40,15.08839885,0.0001396,53.217,294.2009,91.4881,268.6272,0.00017434,2.488e-05,0.0,0 STARLINK-4706,1 53779U 22111G   23037.54282500  .00002488  00000-0  17434-3 0  9993,2 53779  53.2170 294.2009 0001396  91.4881 268.6272 15.08839885 23538,6917.881,95.438,540.711,538.78,0.0
53779.0,STARLINK-4706,PAYLOAD,2023-02-06 20:58:35,15.08851253,0.0001224,53.2162,292.7133,85.0439,275.0693,0.00047774,7.326e-05,0.0,0 STARLINK-4706,1 53779U 22111G   23037.87402224  .00007326  00000-0  47774-3 0  9992,2 53779  53.2162 292.7133 0001224  85.0439 275.0693 15.08851253 22775,6917.846,95.437,540.558,538.864,0.0
53779.0,STARLINK-4706,PAYLOAD,2023-02-07 12:52:26,15.08852418,9.3e-05,53.216,289.741,104.2618,255.8478,0.00034591,5.223e-05,0.0,0 STARLINK-4706,1 53779U 22111G   23038.53641983  .00005223  00000-0  34591-3 0  9990,2 53779  53.2160 289.7410 0000930 104.2618 255.8478 15.08852418 23685,6917.842,95.437,540.351,539.064,0.0
53779.0,STARLINK-4706,PAYLOAD,2023-02-07 14:27:49,15.08844937,0.0001551,53.2156,289.4426,120.4742,239.6403,-5.7832e-06,-3.8e-06,0.0,0 STARLINK-4706,1 53779U 22111G   23038.60265967 -.00000380  00000-0 -57832-5 0  9998,2 53779  53.2156 289.4426 0001551 120.4742 239.6403 15.08844937 22888,6917.865,95.437,540.803,538.657,0.0
53779.0,STARLINK-4706,PAYLOAD,2023-02-07 20:49:22,15.08846736,0.0001264,53.2152,288.2526,116.9974,243.1148,0.00016866,2.398e-05,0.0,0 STARLINK-4706,1 53779U 22111G   23038.86761905  .00002398  00000-0  16866-3 0  9998,2 53779  53.2152 288.2526 0001264 116.9974 243.1148 15.08846736 23730,6917.86,95.437,540.599,538.85,0.0
53779.0,STARLINK-4706,PAYLOAD,2023-02-07 22:24:45,15.08849387,0.0001257,53.215,287.9549,114.8351,245.2772,0.0002427,3.578e-05,0.0,0 STARLINK-4706,1 53779U 22111G   23038.93385873  .00003578  00000-0  24270-3 0  9991,2 53779  53.2150 287.9549 0001257 114.8351 245.2772 15.08849387 23749,6917.852,95.437,540.586,538.847,0.0
53779.0,STARLINK-4706,PAYLOAD,2023-02-08 22:15:31,15.08863935,0.0001475,53.2147,283.4951,106.3812,253.7342,0.0012192,0.00019182,0.0,0 STARLINK-4706,1 53779U 22111G   23039.92745297  .00019182  00000-0  12192-2 0  9998,2 53779  53.2147 283.4951 0001475 106.3812 253.7342 15.08863935 23891,6917.807,95.436,540.693,538.652,0.0
53779.0,STARLINK-4706,PAYLOAD,2023-02-09 01:26:17,15.08874467,0.0001302,53.2151,282.8987,103.157,256.9567,0.0012393,0.00019509,0.0,0 STARLINK-4706,1 53779U 22111G   23040.05992965  .00019509  00000-0  12393-2 0  9996,2 53779  53.2151 282.8987 0001302 103.1570 256.9567 15.08874467 23103,6917.775,95.435,540.541,538.739,0.0
53779.0,STARLINK-4706,PAYLOAD,2023-02-09 22:06:19,15.08845121,0.0001755,53.2142,279.0351,85.0085,275.1107,0.00088681,0.00013856,0.0,0 STARLINK-4706,1 53779U 22111G   23040.92106148  .00013856  00000-0  88681-3 0  9995,2 53779  53.2142 279.0351 0001755  85.0085 275.1107 15.08845121 24049,6917.865,95.437,540.944,538.516,0.0
53779.0,STARLINK-4706,PAYLOAD,2023-02-10 01:17:06,15.08839509,0.0001152,53.2147,278.4392,61.2388,298.872,0.0015156,0.00023915,0.0,0 STARLINK-4706,1 53779U 22111G   23041.05354336  .00023915  00000-0  15156-2 0  9997,2 53779  53.2147 278.4392 0001152  61.2388 298.8720 15.08839509 24063,6917.882,95.438,540.544,538.95,0.0
53779.0,STARLINK-4706,PAYLOAD,2023-02-10 21:57:07,15.08847605,0.0001454,53.215,274.5702,83.2585,276.8572,0.00086469,0.00013503,0.0,0 STARLINK-4706,1 53779U 22111G   23041.91466477  .00013503  00000-0  86469-3 0  9990,2 53779  53.2150 274.5702 0001454  83.2585 276.8572 15.08847605 24198,6917.857,95.437,540.728,538.716,0.0
53779.0,STARLINK-4706,PAYLOAD,2023-02-11 21:47:54,15.0884515,0.0001459,53.2154,270.1098,88.4584,271.6575,0.00051257,7.88e-05,0.0,0 STARLINK-4706,1 53779U 22111G   23042.90826642  .00007880  00000-0  51257-3 0  9992,2 53779  53.2154 270.1098 0001459  88.4584 271.6575 15.08845150 24349,6917.865,95.437,540.739,538.72,0.0
53779.0,STARLINK-4706,PAYLOAD,2023-02-11 23:23:17,15.08847587,0.0001439,53.2155,269.8121,87.837,272.2787,0.00042921,6.551e-05,0.0,0 STARLINK-4706,1 53779U 22111G   23042.97450563  .00006551  00000-0  42921-3 0  9996,2 53779  53.2155 269.8121 0001439  87.8370 272.2787 15.08847587 23545,6917.857,95.437,540.718,538.727,0.0
53779.0,STARLINK-4706,PAYLOAD,2023-02-12 15:17:09,15.08831858,8.66e-05,53.216,266.8409,88.1381,271.971,-3.9514e-05,-9.16e-06,0.0,0 STARLINK-4706,1 53779U 22111G   23043.63691047 -.00000916  00000-0 -39514-4 0  9990,2 53779  53.2160 266.8409 0000866  88.1381 271.9710 15.08831858 23643,6917.905,95.438,540.369,539.171,0.0
53779.0,STARLINK-4706,PAYLOAD,2023-02-13 00:49:27,15.08842762,0.0001132,53.2145,265.056,97.9137,262.1984,0.00031082,4.663e-05,0.0,0 STARLINK-4706,1 53779U 22111G   23044.03434933  .00004663  00000-0  31082-3 0  9996,2 53779  53.2145 265.0560 0001132  97.9137 262.1984 15.08842762 23707,6917.872,95.437,540.52,538.954,0.0
53779.0,STARLINK-4706,PAYLOAD,2023-02-13 07:11:00,15.08843004,9.35e-05,53.2141,263.866,95.1949,264.915,0.00036342,5.501e-05,0.0,0 STARLINK-4706,1 53779U 22111G   23044.29931120  .00005501  00000-0  36342-3 0  9990,2 53779  53.2141 263.8660 0000935  95.1949 264.9150 15.08843004 24550,6917.871,95.437,540.383,539.089,0.0
53779.0,STARLINK-4706,PAYLOAD,2023-02-14 00:40:15,15.08839302,9.33e-05,53.2159,260.5946,89.605,270.5049,0.00011184,1.493e-05,0.0,0 STARLINK-4706,1 53779U 22111G   23045.02795223  .00001493  00000-0  11184-3 0  9997,2 53779  53.2159 260.5946 0000933  89.6050 270.5049 15.08839302 23857,6917.883,95.438,540.393,539.102,0.0
53779.0,STARLINK-4706,PAYLOAD,2023-02-14 13:23:20,15.0883598,0.0001002,53.2148,258.2164,90.9741,269.1366,0.00017002,2.419e-05,0.0,0 STARLINK-4706,1 53779U 22111G   23045.55787709  .00002419  00000-0  17002-3 0  9999,2 53779  53.2148 258.2164 0001002  90.9741 269.1366 15.08835980 24744,6917.893,95.438,540.451,539.065,0.0
53779.0,STARLINK-4706,PAYLOAD,2023-02-14 14:58:43,15.08837643,9.98e-05,53.2149,257.919,94.041,266.0696,9.7402e-05,1.263e-05,0.0,0 STARLINK-4706,1 53779U 22111G   23045.62411614  .00001263  00000-0  97402-4 0  9995,2 53779  53.2149 257.9190 0000998  94.0410 266.0696 15.08837643 24752,6917.888,95.438,540.443,539.062,0.0
53779.0,STARLINK-4706,PAYLOAD,2023-02-15 13:14:07,15.0884559,0.0001094,53.2144,253.7557,90.7153,269.3964,0.00017727,2.535e-05,0.0,0 STARLINK-4706,1 53779U 22111G   23046.55147275  .00002535  00000-0  17727-3 0  9991,2 53779  53.2144 253.7557 0001094  90.7153 269.3964 15.08845590 24083,6917.863,95.437,540.485,538.971,0.0
53779.0,STARLINK-4706,PAYLOAD,2023-02-15 21:11:02,15.08854701,9.39e-05,53.2154,252.2693,89.2149,270.8951,0.00023901,3.52e-05,0.0,0 STARLINK-4706,1 53779U 22111G   23046.88266816  .00003520  00000-0  23901-3 0  9996,2 53779  53.2154 252.2693 0000939  89.2149 270.8951 15.08854701 24946,6917.835,95.437,540.35,539.051,0.0
53779.0,STARLINK-4706,PAYLOAD,2023-02-16 13:04:54,15.08845118,0.0001161,53.2151,249.2957,84.9507,275.1618,0.00015666,2.207e-05,0.0,0 STARLINK-4706,1 53779U 22111G   23047.54507052  .00002207  00000-0  15666-3 0  9990,2 53779  53.2151 249.2957 0001161  84.9507 275.1618 15.08845118 25042,6917.865,95.437,540.533,538.927,0.0
53779.0,STARLINK-4706,PAYLOAD,2023-02-16 19:26:26,15.08851884,0.0001066,53.2156,248.1069,81.7583,278.353,0.00023356,3.432e-05,0.0,0 STARLINK-4706,1 53779U 22111G   23047.81002738  .00003432  00000-0  23356-3 0  9997,2 53779  53.2156 248.1069 0001066  81.7583 278.3530 15.08851884 25081,6917.844,95.437,540.447,538.972,0.0
